OBJECT_NAME,OBJECT_ID,EPOCH,MEAN_MOTION,ECCENTRICITY,INCLINATION,RA_OF_ASC_NODE,ARG_OF_PERICENTER,MEAN_ANOMALY,EPHEMERIS_TYPE,CLASSIFICATION_TYPE,NORAD_CAT_ID,ELEMENT_SET_NO,REV_AT_EPOCH,BSTAR,MEAN_MOTION_DOT,MEAN_MOTION_DDOT
USA 167,2003-008A,2026-07-21T03:17:26.806848,1.00270696,.00034154,11.0271,43.0997,314.6063,228.7551,0,U,27691,999,711,0,-.2E-7,0
USA 169 (MILSTAR-2 4),2003-012A,2026-07-20T20:41:42.520416,1.00273126,.00994599,12.3996,29.5633,10.5165,1.1428,0,U,27711,999,3329,0,-.204E-5,0
ASIASAT 4,2003-014A,2026-07-20T22:23:07.616256,1.00271271,.0002792,4.7870,75.3179,45.8628,300.8491,0,U,27718,999,4563,0,-.225E-5,0
HELLAS-SAT 2,2003-020A,2026-07-20T23:49:38.554176,1.00272316,.00040176,7.4364,67.4758,84.7982,133.8611,0,U,27811,999,4318,0,-.89E-6,0
THURAYA-2,2003-026A,2026-07-21T04:44:01.233600,1.00273845,.000219,8.8901,31.8136,28.9884,353.1817,0,U,27825,999,8469,0,.12E-5,0
OPTUS C1,2003-028B,2026-07-20T14:57:54.965376,1.00273521,.00056603,6.9712,69.0009,47.3967,202.1356,0,U,27831,999,5339,0,-.157E-5,0
USA 170,2003-040A,2026-07-20T18:22:35.126976,1.00277131,.00019774,10.5703,47.6238,69.4041,121.4698,0,U,27875,999,3333,0,.12E-5,0
GALAXY 13 (HORIZONS-1),2003-044A,2026-07-21T05:31:31.675872,1.00273988,.00020827,1.5040,83.4188,41.4976,106.9621,0,U,27954,999,4691,0,.132E-5,0
YAMAL 202,2003-053A,2026-07-20T20:44:57.208992,1.00271595,.00031822,6.4251,70.5266,47.9813,294.8877,0,U,28089,999,8303,0,-.85E-6,0
UFO 11 (USA 174),2003-057A,2026-07-21T00:18:51.485760,1.00270727,.00027916,8.9568,33.6380,104.6290,240.7725,0,U,28117,999,8278,0,-.109E-5,0
USA 176 (DSP 22),2004-004A,2026-07-20T09:28:19.171776,1.00264545,.00010582,12.1068,25.8211,308.5977,56.2528,0,U,28158,999,3327,0,-.304E-5,0
ABS-4 (MOBISAT-1),2004-007A,2026-07-21T04:49:00.754752,1.00274890,.0004547,6.1242,71.5874,52.9353,307.6977,0,U,28184,999,5268,0,.35E-6,0
INTELSAT 10-02,2004-022A,2026-07-21T06:13:56.981856,1.00268959,.00000435,0.0573,256.2087,60.5142,74.7811,0,U,28358,999,8089,0,-.11E-6,0
ANIK F2,2004-027A,2026-07-21T06:08:38.557248,1.00272321,.00037566,3.3735,78.9929,34.9004,166.1555,0,U,28378,999,4160,0,-.51E-6,0
AMC-15,2004-041A,2026-07-21T06:50:02.919264,1.00272097,.0002427,0.0448,281.8100,196.5633,178.1300,0,U,28446,999,7964,0,-.88E-6,0
NSS-10,2005-003A,2026-07-21T00:55:33.934080,1.00271840,.00028669,6.5325,70.0394,46.5693,158.6310,0,U,28526,999,5349,0,-.256E-5,0
INMARSAT 4-F1,2005-009A,2026-07-21T05:22:05.082816,1.00274227,.00027005,5.2143,42.7959,74.8775,79.9332,0,U,28628,999,7801,0,.3E-6,0
DIRECTV 8,2005-019A,2026-07-21T06:08:38.557248,1.00272958,.00031608,0.0173,69.8160,55.3408,146.9676,0,U,28659,999,7741,0,.2E-7,0
GALAXY 28 (G-28),2005-022A,2026-07-21T06:06:27.700128,1.00272033,.00023269,3.3831,78.5098,37.8997,247.1254,0,U,28702,999,5231,0,-.202E-5,0
THAICOM 4,2005-028A,2026-07-21T06:48:23.679360,1.00271700,.00016861,0.3312,85.5229,9.8235,65.2960,0,U,28786,999,5259,0,-.361E-5,0
ANIK F1R,2005-036A,2026-07-21T06:00:38.849760,1.00272366,.00039754,4.3976,76.1555,23.0000,182.7094,0,U,28868,999,4679,0,-.77E-6,0
SYRACUSE 3A,2005-041B,2026-07-21T04:44:53.649888,1.00271086,.00026049,4.7253,75.4166,37.8904,303.5030,0,U,28885,999,7608,0,.126E-5,0
INMARSAT 4-F2,2005-044A,2026-07-21T06:55:15.521376,1.00273562,.00028433,5.1394,43.6869,60.7708,81.9032,0,U,28899,999,7586,0,-.262E-5,0
METEOSAT-9 (MSG-2),2005-049B,2026-07-21T04:44:38.674176,1.00275570,.00024674,9.4364,53.8277,359.6025,2.3892,0,U,28912,999,734,0,.118E-5,0
EUTELSAT 174A,2005-052A,2026-07-20T20:47:56.921856,1.00273118,.00060626,4.3019,76.1101,43.2609,305.2018,0,U,28924,999,5266,0,.6E-7,0
ECHOSTAR 10,2006-003A,2026-07-21T06:00:38.849760,1.00271653,.00016363,0.0412,292.8180,149.0147,197.1527,0,U,28935,999,7480,0,-.54E-6,0
SPAINSAT,2006-007A,2026-07-21T06:04:52.319712,1.00272766,.00049151,0.6493,85.9921,29.5101,244.5346,0,U,28945,999,7455,0,-.216E-5,0
JCSAT-5A,2006-010A,2026-07-21T06:10:52.097088,1.00271640,.00019264,1.1952,83.8339,27.3736,52.5753,0,U,29045,999,7411,0,-.328E-5,0
ASTRA 1KR,2006-012A,2026-07-21T06:19:41.431872,1.00273798,.0003529,0.5597,83.1898,28.9638,300.7936,0,U,29055,999,4603,0,.12E-5,0
GALAXY 16 (G-16),2006-023A,2026-07-21T06:52:03.107712,1.00271691,.00027482,0.0254,135.1540,346.1343,181.7576,0,U,29236,999,7331,0,-.126E-5,0
EUTELSAT 33F,2006-032A,2026-07-21T04:41:01.520736,1.00275549,.00036489,1.7473,81.8644,33.9256,286.5251,0,U,29270,999,4764,0,.155E-5,0
JCSAT-3A,2006-033A,2026-07-21T06:50:45.951648,1.00270927,.00023607,0.0302,284.5056,199.3741,45.8606,0,U,29272,999,4808,0,-.344E-5,0
