USA 167                 
1 27691U 03008A   26202.13711582 -.00000002  00000+0  00000+0 0  9997
2 27691  11.0271  43.0997 0003415 314.6063 228.7551  1.00270696  7117
USA 169 (MILSTAR-2 4)   
1 27711U 03012A   26201.86229769 -.00000204  00000+0  00000+0 0  9999
2 27711  12.3996  29.5633 0099459  10.5165   1.1428  1.00273126 33297
ASIASAT 4               
1 27718U 03014A   26201.93272704 -.00000225  00000+0  00000+0 0  9996
2 27718   4.7870  75.3179 0002792  45.8628 300.8491  1.00271271 45632
HELLAS-SAT 2            
1 27811U 03020A   26201.99280734 -.00000089  00000+0  00000+0 0  9993
2 27811   7.4364  67.4758 0004017  84.7982 133.8611  1.00272316 43183
THURAYA-2               
1 27825U 03026A   26202.19723650  .00000120  00000+0  00000+0 0  9991
2 27825   8.8901  31.8136 0002190  28.9884 353.1817  1.00273845 84690
OPTUS C1                
1 27831U 03028B   26201.62355284 -.00000157  00000+0  00000+0 0  9992
2 27831   6.9712  69.0009 0005660  47.3967 202.1356  1.00273521 53395
USA 170                 
1 27875U 03040A   26201.76568434  .00000120  00000+0  00000+0 0  9991
2 27875  10.5703  47.6238 0001977  69.4041 121.4698  1.00277131 33330
GALAXY 13 (HORIZONS-1)  
1 27954U 03044A   26202.23022773  .00000132  00000+0  00000+0 0  9990
2 27954   1.5040  83.4188 0002082  41.4976 106.9621  1.00273988 46917
YAMAL 202               
1 28089U 03053A   26201.86455103 -.00000085  00000+0  00000+0 0  9993
2 28089   6.4251  70.5266 0003182  47.9813 294.8877  1.00271595 83038
UFO 11 (USA 174)        
1 28117U 03057A   26202.01309590 -.00000109  00000+0  00000+0 0  9992
2 28117   8.9568  33.6380 0002791 104.6290 240.7725  1.00270727 82789
USA 176 (DSP 22)        
1 28158U 04004A   26201.39466634 -.00000304  00000+0  00000+0 0  9990
2 28158  12.1068  25.8211 0001058 308.5977  56.2528  1.00264545 33276
ABS-4 (MOBISAT-1)       
1 28184U 04007A   26202.20070318  .00000035  00000+0  00000+0 0  9993
2 28184   6.1242  71.5874 0004547  52.9353 307.6977  1.00274890 52680
INTELSAT 10-02          
1 28358U 04022A   26202.25968729 -.00000011  00000+0  00000+0 0  9995
2 28358   0.0573 256.2087 0000043  60.5142  74.7811  1.00268959 80891
ANIK F2                 
1 28378U 04027A   26202.25600182 -.00000051  00000+0  00000+0 0  9992
2 28378   3.3735  78.9929 0003756  34.9004 166.1555  1.00272321 41604
AMC-15                  
1 28446U 04041A   26202.28475601 -.00000088  00000+0  00000+0 0  9993
2 28446   0.0448 281.8100 0002427 196.5633 178.1300  1.00272097 79644
NSS-10                  
1 28526U 05003A   26202.03858720 -.00000256  00000+0  00000+0 0  9998
2 28526   6.5325  70.0394 0002866  46.5693 158.6310  1.00271840 53492
INMARSAT 4-F1           
1 28628U 05009A   26202.22366994  .00000030  00000+0  00000+0 0  9994
2 28628   5.2143  42.7959 0002700  74.8775  79.9332  1.00274227 78010
DIRECTV 8               
1 28659U 05019A   26202.25600182  .00000002  00000+0  00000+0 0  9991
2 28659   0.0173  69.8160 0003160  55.3408 146.9676  1.00272958 77410
GALAXY 28 (G-28)        
1 28702U 05022A   26202.25448727 -.00000202  00000+0  00000+0 0  9992
2 28702   3.3831  78.5098 0002326  37.8997 247.1254  1.00272033 52316
THAICOM 4               
1 28786U 05028A   26202.28360740 -.00000361  00000+0  00000+0 0  9997
2 28786   0.3312  85.5229 0001686   9.8235  65.2960  1.00271700 52598
ANIK F1R                
1 28868U 05036A   26202.25044965 -.00000077  00000+0  00000+0 0  9996
2 28868   4.3976  76.1555 0003975  23.0000 182.7094  1.00272366 46795
SYRACUSE 3A             
1 28885U 05041B   26202.19784317  .00000126  00000+0  00000+0 0  9990
2 28885   4.7253  75.4166 0002604  37.8904 303.5030  1.00271086 76086
INMARSAT 4-F2           
1 28899U 05044A   26202.28837409 -.00000262  00000+0  00000+0 0  9991
2 28899   5.1394  43.6869 0002843  60.7708  81.9032  1.00273562 75866
METEOSAT-9 (MSG-2)      
1 28912U 05049B   26202.19766984  .00000118  00000+0  00000+0 0  9990
2 28912   9.4364  53.8277 0002467 359.6025   2.3892  1.00275570  7346
EUTELSAT 174A           
1 28924U 05052A   26201.86663104  .00000006  00000+0  00000+0 0  9996
2 28924   4.3019  76.1101 0006062  43.2609 305.2018  1.00273118 52669
ECHOSTAR 10             
1 28935U 06003A   26202.25044965 -.00000054  00000+0  00000+0 0  9991
2 28935   0.0412 292.8180 0001636 149.0147 197.1527  1.00271653 74804
SPAINSAT                
1 28945U 06007A   26202.25338333 -.00000216  00000+0  00000+0 0  9991
2 28945   0.6493  85.9921 0004915  29.5101 244.5346  1.00272766 74553
JCSAT-5A                
1 29045U 06010A   26202.25754742 -.00000328  00000+0  00000+0 0  9997
2 29045   1.1952  83.8339 0001926  27.3736  52.5753  1.00271640 74111
ASTRA 1KR               
1 29055U 06012A   26202.26367398  .00000120  00000+0  00000+0 0  9997
2 29055   0.5597  83.1898 0003529  28.9638 300.7936  1.00273798 46039
GALAXY 16 (G-16)        
1 29236U 06023A   26202.28614708 -.00000126  00000+0  00000+0 0  9999
2 29236   0.0254 135.1540 0002748 346.1343 181.7576  1.00271691 73315
EUTELSAT 33F            
1 29270U 06032A   26202.19515649  .00000155  00000+0  00000+0 0  9992
2 29270   1.7473  81.8644 0003648  33.9256 286.5251  1.00275549 47647
JCSAT-3A                
1 29272U 06033A   26202.28525407 -.00000344  00000+0  00000+0 0  9999
2 29272   0.0302 284.5056 0002360 199.3741  45.8606  1.00270927 48081
